[
    {
        "Altitude(m)": 709779.5843608571,
        "Argument of Periapsis(deg)": 0.0034170363559881197,
        "Eccentricity": 0.0,
        "Inclination(deg)": 45.0,
        "Latitude(deg)": -24.846778366680287,
        "Longitude(deg)": 82.21336501991036,
        "Mean Anomaly(deg)": -143.81273500575568,
        "RAAN(deg)": 334.99677441756256,
        "Satellite Name": "Constellation 1 1487",
        "Satellite Number": 1487,
        "Semi-Major Axis(m)": 7083131.272910544,
        "Time(s)": 57
    },
    {
        "Altitude(m)": 709793.3606533372,
        "Argument of Periapsis(deg)": 0.003476984362233526,
        "Eccentricity": 0.0,
        "Inclination(deg)": 45.0,
        "Latitude(deg)": -24.88500987519525,
        "Longitude(deg)": 82.2611855852205,
        "Mean Anomaly(deg)": -143.75203386550587,
        "RAAN(deg)": 334.996717828397,
        "Satellite Name": "Constellation 1 1487",
        "Satellite Number": 1487,
        "Semi-Major Axis(m)": 7083131.272910544,
        "Time(s)": 58
    },
    {
        "Altitude(m)": 709807.1394940951,
        "Argument of Periapsis(deg)": 0.003536932368478932,
        "Eccentricity": 0.0,
        "Inclination(deg)": 45.0,
        "Latitude(deg)": -24.923223027104356,
        "Longitude(deg)": 82.3090378120957,
        "Mean Anomaly(deg)": -143.69133272525602,
        "RAAN(deg)": 334.99666123923146,
        "Satellite Name": "Constellation 1 1487",
        "Satellite Number": 1487,
        "Semi-Major Axis(m)": 7083131.272910544,
        "Time(s)": 59
    },
    {
        "Altitude(m)": 709820.920836337,
        "Argument of Periapsis(deg)": 0.003596880374724337,
        "Eccentricity": 0.0,
        "Inclination(deg)": 45.0,
        "Latitude(deg)": -24.9614177799238,
        "Longitude(deg)": 82.35692209686752,
        "Mean Anomaly(deg)": -143.63063158500606,
        "RAAN(deg)": 334.9966046500659,
        "Satellite Name": "Constellation 1 1487",
        "Satellite Number": 1487,
        "Semi-Major Axis(m)": 7083131.272910544,
        "Time(s)": 60
    },
    {
        "Altitude(m)": 709834.7046332407,
        "Argument of Periapsis(deg)": 0.0036568283809697427,
        "Eccentricity": 0.0,
        "Inclination(deg)": 45.0,
        "Latitude(deg)": -24.99959409110821,
        "Longitude(deg)": 82.40483833158228,
        "Mean Anomaly(deg)": -143.5699304447561,
        "RAAN(deg)": 334.99654806090035,
        "Satellite Name": "Constellation 1 1487",
        "Satellite Number": 1487,
        "Semi-Major Axis(m)": 7083131.272910544,
        "Time(s)": 61
    },
    {
        "Altitude(m)": 709848.4908379694,
        "Argument of Periapsis(deg)": 0.003716776387215149,
        "Eccentricity": 0.0,
        "Inclination(deg)": 45.0,
        "Latitude(deg)": -25.0377519180505,
        "Longitude(deg)": 82.45278657638875,
        "Mean Anomaly(deg)": -143.50922930450622,
        "RAAN(deg)": 334.9964914717347,
        "Satellite Name": "Constellation 1 1487",
        "Satellite Number": 1487,
        "Semi-Major Axis(m)": 7083131.272910544,
        "Time(s)": 62
    },
    {
        "Altitude(m)": 709862.2794036656,
        "Argument of Periapsis(deg)": 0.003776724393460554,
        "Eccentricity": 0.0,
        "Inclination(deg)": 45.0,
        "Latitude(deg)": -25.07589121808172,
        "Longitude(deg)": 82.50076689144086,
        "Mean Anomaly(deg)": -143.44852816425635,
        "RAAN(deg)": 334.99643488256913,
        "Satellite Name": "Constellation 1 1487",
        "Satellite Number": 1487,
        "Semi-Major Axis(m)": 7083131.272910544,
        "Time(s)": 63
    },
    {
        "Altitude(m)": 709876.0702834418,
        "Argument of Periapsis(deg)": 0.003836672399705959,
        "Eccentricity": 0.0,
        "Inclination(deg)": 45.0,
        "Latitude(deg)": -25.11401194847109,
        "Longitude(deg)": 82.54877933689743,
        "Mean Anomaly(deg)": -143.38782702400638,
        "RAAN(deg)": 334.9963782934036,
        "Satellite Name": "Constellation 1 1487",
        "Satellite Number": 1487,
        "Semi-Major Axis(m)": 7083131.272910544,
        "Time(s)": 64
    },
    {
        "Altitude(m)": 709889.863430391,
        "Argument of Periapsis(deg)": 0.003896620405951365,
        "Eccentricity": 0.0,
        "Inclination(deg)": 45.0,
        "Latitude(deg)": -25.152114066425636,
        "Longitude(deg)": 82.59682397292156,
        "Mean Anomaly(deg)": -143.32712588375657,
        "RAAN(deg)": 334.996321704238,
        "Satellite Name": "Constellation 1 1487",
        "Satellite Number": 1487,
        "Semi-Major Axis(m)": 7083131.272910544,
        "Time(s)": 65
    },
    {
        "Altitude(m)": 709903.6587975918,
        "Argument of Periapsis(deg)": 0.003956568412196771,
        "Eccentricity": 0.0,
        "Inclination(deg)": 45.0,
        "Latitude(deg)": -25.19019752909029,
        "Longitude(deg)": 82.64490085968073,
        "Mean Anomaly(deg)": -143.2664247435067,
        "RAAN(deg)": 334.9962651150725,
        "Satellite Name": "Constellation 1 1487",
        "Satellite Number": 1487,
        "Semi-Major Axis(m)": 7083131.272910544,
        "Time(s)": 66
    },
    {
        "Altitude(m)": 709917.4563380956,
        "Argument of Periapsis(deg)": 0.004016516418442176,
        "Eccentricity": 0.0,
        "Inclination(deg)": 45.0,
        "Latitude(deg)": -25.228262293548028,
        "Longitude(deg)": 82.69300988924961,
        "Mean Anomaly(deg)": -143.2057236032567,
        "RAAN(deg)": 334.99620852590687,
        "Satellite Name": "Constellation 1 1487",
        "Satellite Number": 1487,
        "Semi-Major Axis(m)": 7083131.272910544,
        "Time(s)": 67
    },
    {
        "Altitude(m)": 709931.2560049376,
        "Argument of Periapsis(deg)": 0.004076464424687581,
        "Eccentricity": 0.0,
        "Inclination(deg)": 45.0,
        "Latitude(deg)": -25.26630831681886,
        "Longitude(deg)": 82.74115145799686,
        "Mean Anomaly(deg)": -143.14502246300682,
        "RAAN(deg)": 334.9961519367413,
        "Satellite Name": "Constellation 1 1487",
        "Satellite Number": 1487,
        "Semi-Major Axis(m)": 7083131.272910544,
        "Time(s)": 68
    },
    {
        "Altitude(m)": 709945.0577511302,
        "Argument of Periapsis(deg)": 0.004136412430932987,
        "Eccentricity": 0.0,
        "Inclination(deg)": 45.0,
        "Latitude(deg)": -25.304335555860888,
        "Longitude(deg)": 82.7893254580041,
        "Mean Anomaly(deg)": -143.084321322757,
        "RAAN(deg)": 334.99609534757576,
        "Satellite Name": "Constellation 1 1487",
        "Satellite Number": 1487,
        "Semi-Major Axis(m)": 7083131.272910544,
        "Time(s)": 69
    },
    {
        "Altitude(m)": 709958.8615296566,
        "Argument of Periapsis(deg)": 0.004196360437178394,
        "Eccentricity": 0.0,
        "Inclination(deg)": 45.0,
        "Latitude(deg)": -25.3423439675696,
        "Longitude(deg)": 82.83753194945274,
        "Mean Anomaly(deg)": -143.02362018250705,
        "RAAN(deg)": 334.9960387584102,
        "Satellite Name": "Constellation 1 1487",
        "Satellite Number": 1487,
        "Semi-Major Axis(m)": 7083131.272910544,
        "Time(s)": 70
    },
    {
        "Altitude(m)": 709972.6672934967,
        "Argument of Periapsis(deg)": 0.004256308443423799,
        "Eccentricity": 0.0,
        "Inclination(deg)": 45.0,
        "Latitude(deg)": -25.380333508777685,
        "Longitude(deg)": 82.88577099252696,
        "Mean Anomaly(deg)": -142.9629190422571,
        "RAAN(deg)": 334.9959821692446,
        "Satellite Name": "Constellation 1 1487",
        "Satellite Number": 1487,
        "Semi-Major Axis(m)": 7083131.272910544,
        "Time(s)": 71
    },
    {
        "Altitude(m)": 709986.4749955987,
        "Argument of Periapsis(deg)": 0.004316256449669204,
        "Eccentricity": 0.0,
        "Inclination(deg)": 45.0,
        "Latitude(deg)": -25.41830413625512,
        "Longitude(deg)": 82.93404264741308,
        "Mean Anomaly(deg)": -142.9022179020073,
        "RAAN(deg)": 334.995925580079,
        "Satellite Name": "Constellation 1 1487",
        "Satellite Number": 1487,
        "Semi-Major Axis(m)": 7083131.272910544,
        "Time(s)": 72
    },
    {
        "Altitude(m)": 710000.2845888985,
        "Argument of Periapsis(deg)": 0.00437620445591461,
        "Eccentricity": 0.0,
        "Inclination(deg)": 45.0,
        "Latitude(deg)": -25.456255806709244,
        "Longitude(deg)": 82.9823469743001,
        "Mean Anomaly(deg)": -142.84151676175733,
        "RAAN(deg)": 334.99586899091344,
        "Satellite Name": "Constellation 1 1487",
        "Satellite Number": 1487,
        "Semi-Major Axis(m)": 7083131.272910544,
        "Time(s)": 73
    },
    {
        "Altitude(m)": 710014.0960263012,
        "Argument of Periapsis(deg)": 0.004436152462160016,
        "Eccentricity": 0.0,
        "Inclination(deg)": 45.0,
        "Latitude(deg)": -25.494188476784366,
        "Longitude(deg)": 83.03068386528147,
        "Mean Anomaly(deg)": -142.7808156215074,
        "RAAN(deg)": 334.9958124017479,
        "Satellite Name": "Constellation 1 1487",
        "Satellite Number": 1487,
        "Semi-Major Axis(m)": 7083131.272910544,
        "Time(s)": 74
    },
    {
        "Altitude(m)": 710027.9092606987,
        "Argument of Periapsis(deg)": 0.0044961004684054215,
        "Eccentricity": 0.0,
        "Inclination(deg)": 45.0,
        "Latitude(deg)": -25.53210210306153,
        "Longitude(deg)": 83.0790537167428,
        "Mean Anomaly(deg)": -142.72011448125753,
        "RAAN(deg)": 334.99575581258233,
        "Satellite Name": "Constellation 1 1487",
        "Satellite Number": 1487,
        "Semi-Major Axis(m)": 7083131.272910544,
        "Time(s)": 75
    }
]